<?xml version='1.0' encoding='utf-8'?>
<q:quakeml xmlns:q="http://quakeml.org/xmlns/quakeml/1.2" xmlns="http://quakeml.org/xmlns/bed/1.2">
  <eventParameters publicID="smi:local/6d9acc8c-0f4e-43bc-8df6-94d49e768ac4">
    <event publicID="smi:local/d2ab8b61-b166-4c7b-addd-6b9cdae76677">
      <pick publicID="smi:local/b328d053-0a8e-4ddf-bc41-78d5f603427f">
        <time>
          <value>2019-04-23T16:37:16.348394Z</value>
        </time>
        <waveformID channelCode="EHZ" locationCode="10" networkCode="NZ" stationCode="DVHZ"></waveformID>
        <phaseHint>P</phaseHint>
        <evaluationMode>manual</evaluationMode>
        <creationInfo>
          <author>calumch</author>
        </creationInfo>
      </pick>
      <pick publicID="smi:local/5d58d54c-9e6e-445f-ae77-84aff9e64bcb">
        <time>
          <value>2019-04-23T16:37:19.253128Z</value>
        </time>
        <waveformID channelCode="EHZ" locationCode="10" networkCode="NZ" stationCode="PNHZ"></waveformID>
        <phaseHint>P</phaseHint>
        <evaluationMode>manual</evaluationMode>
        <creationInfo>
          <author>calumch</author>
        </creationInfo>
      </pick>
      <pick publicID="smi:local/9a0604a3-4d1d-4b3b-a122-95a74ccbc0d7">
        <time>
          <value>2019-04-23T16:37:16.908394Z</value>
        </time>
        <waveformID channelCode="EHZ" locationCode="10" networkCode="NZ" stationCode="POWZ"></waveformID>
        <phaseHint>P</phaseHint>
        <evaluationMode>manual</evaluationMode>
        <creationInfo>
          <author>calumch</author>
        </creationInfo>
      </pick>
      <pick publicID="smi:local/c11771b6-1636-42ee-8488-422856d3c5bd">
        <time>
          <value>2019-04-23T16:37:18.278393Z</value>
        </time>
        <waveformID channelCode="EHZ" locationCode="10" networkCode="NZ" stationCode="PRWZ"></waveformID>
        <phaseHint>P</phaseHint>
        <evaluationMode>manual</evaluationMode>
        <creationInfo>
          <author>calumch</author>
        </creationInfo>
      </pick>
      <pick publicID="smi:local/a25c0ca2-d550-482c-8c37-36353b68d704">
        <time>
          <value>2019-04-23T16:37:16.783131Z</value>
        </time>
        <waveformID channelCode="HHZ" locationCode="10" networkCode="NZ" stationCode="TSZ"></waveformID>
        <phaseHint>P</phaseHint>
        <evaluationMode>manual</evaluationMode>
        <creationInfo>
          <author>calumch</author>
        </creationInfo>
      </pick>
      <pick publicID="smi:local/604c9632-fd0c-400e-862d-4b4ee7b5a2f4">
        <time>
          <value>2019-04-23T16:37:20.760000Z</value>
        </time>
        <waveformID channelCode="EHE" locationCode="10" networkCode="NZ" stationCode="DVHZ"></waveformID>
        <phaseHint>S</phaseHint>
        <evaluationMode>manual</evaluationMode>
        <creationInfo>
          <author>calumch</author>
        </creationInfo>
      </pick>
      <pick publicID="smi:local/f001119b-7034-48f4-a6b0-f8fa59633bd4">
        <time>
          <value>2019-04-23T16:37:25.929740Z</value>
        </time>
        <waveformID channelCode="EHN" locationCode="10" networkCode="NZ" stationCode="PNHZ"></waveformID>
        <phaseHint>S</phaseHint>
        <evaluationMode>manual</evaluationMode>
        <creationInfo>
          <author>calumch</author>
        </creationInfo>
      </pick>
      <pick publicID="smi:local/c02e1d10-8dcb-4ac4-bada-fc0f4d548e31">
        <time>
          <value>2019-04-23T16:37:21.761880Z</value>
        </time>
        <waveformID channelCode="EHE" locationCode="10" networkCode="NZ" stationCode="POWZ"></waveformID>
        <phaseHint>S</phaseHint>
        <evaluationMode>manual</evaluationMode>
        <creationInfo>
          <author>calumch</author>
        </creationInfo>
      </pick>
      <pick publicID="smi:local/9e055021-9455-432e-bdc8-ef38a8520266">
        <time>
          <value>2019-04-23T16:37:24.647320Z</value>
        </time>
        <waveformID channelCode="EHE" locationCode="10" networkCode="NZ" stationCode="PRWZ"></waveformID>
        <phaseHint>S</phaseHint>
        <evaluationMode>manual</evaluationMode>
        <creationInfo>
          <author>calumch</author>
        </creationInfo>
      </pick>
      <pick publicID="smi:local/f5ef5da8-cb71-4618-9791-f9ed78bcb246">
        <time>
          <value>2019-04-23T16:37:21.601580Z</value>
        </time>
        <waveformID channelCode="HHN" locationCode="10" networkCode="NZ" stationCode="TSZ"></waveformID>
        <phaseHint>S</phaseHint>
        <evaluationMode>manual</evaluationMode>
        <creationInfo>
          <author>calumch</author>
        </creationInfo>
      </pick>
      <pick publicID="smi:local/bc90c5f7-30cc-4a62-a344-990aef621c5d">
        <time>
          <value>2019-04-23T16:37:21.521440Z</value>
        </time>
        <waveformID channelCode="EHZ" locationCode="10" networkCode="NZ" stationCode="DVHZ"></waveformID>
        <phaseHint>IAML</phaseHint>
        <evaluationMode>manual</evaluationMode>
        <creationInfo>
          <author>calumch</author>
        </creationInfo>
      </pick>
      <pick publicID="smi:local/64a40356-1b5a-49ee-a132-0ffd1482209c">
        <time>
          <value>2019-04-23T16:37:27.412520Z</value>
        </time>
        <waveformID channelCode="EHZ" locationCode="10" networkCode="NZ" stationCode="PNHZ"></waveformID>
        <phaseHint>IAML</phaseHint>
        <evaluationMode>manual</evaluationMode>
        <creationInfo>
          <author>calumch</author>
        </creationInfo>
      </pick>
      <pick publicID="smi:local/59eddfad-4295-435a-b4f3-38498240eddf">
        <time>
          <value>2019-04-23T16:37:22.843920Z</value>
        </time>
        <waveformID channelCode="EHZ" locationCode="10" networkCode="NZ" stationCode="POWZ"></waveformID>
        <phaseHint>IAML</phaseHint>
        <evaluationMode>manual</evaluationMode>
        <creationInfo>
          <author>calumch</author>
        </creationInfo>
      </pick>
      <pick publicID="smi:local/ed8d50fc-cb45-4c58-a94a-a8f5127e2371">
        <time>
          <value>2019-04-23T16:37:27.091920Z</value>
        </time>
        <waveformID channelCode="EHZ" locationCode="10" networkCode="NZ" stationCode="PRWZ"></waveformID>
        <phaseHint>IAML</phaseHint>
        <evaluationMode>manual</evaluationMode>
        <creationInfo>
          <author>calumch</author>
        </creationInfo>
      </pick>
      <pick publicID="smi:local/c3a73219-2d6e-4916-ae75-93b2a9db1c2c">
        <time>
          <value>2019-04-23T16:37:22.282860Z</value>
        </time>
        <waveformID channelCode="HHZ" locationCode="10" networkCode="NZ" stationCode="TSZ"></waveformID>
        <phaseHint>IAML</phaseHint>
        <evaluationMode>manual</evaluationMode>
        <creationInfo>
          <author>calumch</author>
        </creationInfo>
      </pick>
      <pick publicID="smi:local/202c3a41-df8d-4909-a3b4-e5e2fee2119e">
        <time>
          <value>2019-04-23T16:38:50.268220Z</value>
        </time>
        <waveformID channelCode="EHZ" locationCode="10" networkCode="NZ" stationCode="DVHZ"></waveformID>
        <phaseHint>END</phaseHint>
        <evaluationMode>manual</evaluationMode>
        <creationInfo>
          <author>calumch</author>
        </creationInfo>
      </pick>
      <pick publicID="smi:local/34634d3d-50da-4969-9336-a9dc230cded4">
        <time>
          <value>2019-04-23T16:39:47.929020Z</value>
        </time>
        <waveformID channelCode="EHZ" locationCode="10" networkCode="NZ" stationCode="POWZ"></waveformID>
        <phaseHint>END</phaseHint>
        <evaluationMode>manual</evaluationMode>
        <creationInfo>
          <author>calumch</author>
        </creationInfo>
      </pick>
      <pick publicID="smi:local/957ba450-8d7a-4ea0-b098-cd3bd4991165">
        <time>
          <value>2019-04-23T16:39:38.527820Z</value>
        </time>
        <waveformID channelCode="EHZ" locationCode="10" networkCode="NZ" stationCode="PRWZ"></waveformID>
        <phaseHint>END</phaseHint>
        <evaluationMode>manual</evaluationMode>
        <creationInfo>
          <author>calumch</author>
        </creationInfo>
      </pick>
      <pick publicID="smi:local/bc871646-d505-4d29-805b-86e0cb2f06e9">
        <time>
          <value>2019-04-23T16:39:30.223400Z</value>
        </time>
        <waveformID channelCode="HHZ" locationCode="10" networkCode="NZ" stationCode="TSZ"></waveformID>
        <phaseHint>END</phaseHint>
        <evaluationMode>manual</evaluationMode>
        <creationInfo>
          <author>calumch</author>
        </creationInfo>
      </pick>
      <amplitude publicID="smi:local/af8d5184-83dd-4f0a-b01c-3288d9bcfbd2">
        <genericAmplitude>
          <value>0.0018318401570376133</value>
        </genericAmplitude>
        <type>A</type>
        <pickID>smi:local/bc90c5f7-30cc-4a62-a344-990aef621c5d</pickID>
        <waveformID channelCode="EHZ" locationCode="10" networkCode="NZ" stationCode="DVHZ"></waveformID>
        <evaluationMode>manual</evaluationMode>
        <creationInfo>
          <author>calumch</author>
        </creationInfo>
      </amplitude>
      <amplitude publicID="smi:local/587ba42b-de78-42bb-903d-9b0d44f85601">
        <genericAmplitude>
          <value>0.000845829160774119</value>
        </genericAmplitude>
        <type>A</type>
        <pickID>smi:local/64a40356-1b5a-49ee-a132-0ffd1482209c</pickID>
        <waveformID channelCode="EHZ" locationCode="10" networkCode="NZ" stationCode="PNHZ"></waveformID>
        <evaluationMode>manual</evaluationMode>
        <creationInfo>
          <author>calumch</author>
        </creationInfo>
      </amplitude>
      <amplitude publicID="smi:local/607410d9-dd37-4c0b-aa80-28a48faf1846">
        <genericAmplitude>
          <value>0.015388149245059102</value>
        </genericAmplitude>
        <type>A</type>
        <pickID>smi:local/59eddfad-4295-435a-b4f3-38498240eddf</pickID>
        <waveformID channelCode="EHZ" locationCode="10" networkCode="NZ" stationCode="POWZ"></waveformID>
        <evaluationMode>manual</evaluationMode>
        <creationInfo>
          <author>calumch</author>
        </creationInfo>
      </amplitude>
      <amplitude publicID="smi:local/d034e018-0cff-4939-b972-92921817dc3a">
        <genericAmplitude>
          <value>0.009681016245868979</value>
        </genericAmplitude>
        <type>A</type>
        <pickID>smi:local/ed8d50fc-cb45-4c58-a94a-a8f5127e2371</pickID>
        <waveformID channelCode="EHZ" locationCode="10" networkCode="NZ" stationCode="PRWZ"></waveformID>
        <evaluationMode>manual</evaluationMode>
        <creationInfo>
          <author>calumch</author>
        </creationInfo>
      </amplitude>
      <amplitude publicID="smi:local/179b9095-2f1d-42da-8c03-27bb24e002f2">
        <genericAmplitude>
          <value>0.02281380092380242</value>
        </genericAmplitude>
        <type>A</type>
        <pickID>smi:local/c3a73219-2d6e-4916-ae75-93b2a9db1c2c</pickID>
        <waveformID channelCode="HHZ" locationCode="10" networkCode="NZ" stationCode="TSZ"></waveformID>
        <evaluationMode>manual</evaluationMode>
        <creationInfo>
          <author>calumch</author>
        </creationInfo>
      </amplitude>
      <amplitude publicID="smi:local/719b28e3-b366-42d7-88a4-fd09c850325e">
        <genericAmplitude>
          <value>93.919826</value>
        </genericAmplitude>
        <type>END</type>
        <pickID>smi:local/202c3a41-df8d-4909-a3b4-e5e2fee2119e</pickID>
        <waveformID channelCode="EHZ" locationCode="10" networkCode="NZ" stationCode="DVHZ"></waveformID>
        <evaluationMode>manual</evaluationMode>
        <creationInfo>
          <author>calumch</author>
        </creationInfo>
      </amplitude>
      <amplitude publicID="smi:local/6e15d108-c332-4251-9a64-49acaf318481">
        <genericAmplitude>
          <value>151.020626</value>
        </genericAmplitude>
        <type>END</type>
        <pickID>smi:local/34634d3d-50da-4969-9336-a9dc230cded4</pickID>
        <waveformID channelCode="EHZ" locationCode="10" networkCode="NZ" stationCode="POWZ"></waveformID>
        <evaluationMode>manual</evaluationMode>
        <creationInfo>
          <author>calumch</author>
        </creationInfo>
      </amplitude>
      <amplitude publicID="smi:local/b1785c0f-c231-4df8-b39c-5f373c5c98c2">
        <genericAmplitude>
          <value>140.249427</value>
        </genericAmplitude>
        <type>END</type>
        <pickID>smi:local/957ba450-8d7a-4ea0-b098-cd3bd4991165</pickID>
        <waveformID channelCode="EHZ" locationCode="10" networkCode="NZ" stationCode="PRWZ"></waveformID>
        <evaluationMode>manual</evaluationMode>
        <creationInfo>
          <author>calumch</author>
        </creationInfo>
      </amplitude>
      <amplitude publicID="smi:local/d01b1674-bdfe-4edb-ba85-1fbed752b7a4">
        <genericAmplitude>
          <value>133.440269</value>
        </genericAmplitude>
        <type>END</type>
        <pickID>smi:local/bc871646-d505-4d29-805b-86e0cb2f06e9</pickID>
        <waveformID channelCode="HHZ" locationCode="10" networkCode="NZ" stationCode="TSZ"></waveformID>
        <evaluationMode>manual</evaluationMode>
        <creationInfo>
          <author>calumch</author>
        </creationInfo>
      </amplitude>
    </event>
  </eventParameters>
</q:quakeml>
