<?xml version='1.0' encoding='utf-8'?>
<q:quakeml xmlns:q="http://quakeml.org/xmlns/quakeml/1.2" xmlns="http://quakeml.org/xmlns/bed/1.2">
  <eventParameters publicID="smi:local/ee48a4c7-cd2b-4f00-adc3-798f1cd3214c">
    <event publicID="smi:nz.org.geonet/2018p546311">
      <preferredOriginID>smi:nz.org.geonet/Origin#20180722033227.67467.102773</preferredOriginID>
      <preferredMagnitudeID>smi:nz.org.geonet/Origin#20180722033227.67467.102773#netMag.M</preferredMagnitudeID>
      <type>earthquake</type>
      <description>
        <text>Nelson</text>
        <type>region name</type>
      </description>
      <creationInfo>
        <agencyID>WEL(GNS_Primary)</agencyID>
        <author>scevent@kseqp01.geonet.org.nz</author>
        <creationTime>2018-07-22T03:15:13.470110Z</creationTime>
      </creationInfo>
      <origin publicID="smi:nz.org.geonet/Origin#20180722033227.67467.102773">
        <time>
          <value>2018-07-22T03:14:44.634911Z</value>
          <uncertainty>0.8835286661</uncertainty>
          <confidenceLevel>89.99999762</confidenceLevel>
        </time>
        <latitude>
          <value>-41.2063942</value>
          <uncertainty>4.378651347</uncertainty>
          <confidenceLevel>89.99999762</confidenceLevel>
        </latitude>
        <longitude>
          <value>173.5365601</value>
          <uncertainty>3.537644327</uncertainty>
          <confidenceLevel>89.99999762</confidenceLevel>
        </longitude>
        <depth>
          <value>72544.7464</value>
          <uncertainty>7181.85733</uncertainty>
          <confidenceLevel>89.99999762</confidenceLevel>
        </depth>
        <methodID>smi:nz.org.geonet/LOCSAT</methodID>
        <earthModelID>smi:nz.org.geonet/iasp91</earthModelID>
        <quality>
          <associatedPhaseCount>204</associatedPhaseCount>
          <usedPhaseCount>34</usedPhaseCount>
          <associatedStationCount>187</associatedStationCount>
          <usedStationCount>19</usedStationCount>
          <depthPhaseCount>0</depthPhaseCount>
          <standardError>0.6081811938</standardError>
          <azimuthalGap>76.93807125</azimuthalGap>
          <minimumDistance>0.1190006584</minimumDistance>
          <maximumDistance>1.944734812</maximumDistance>
          <medianDistance>0.4062093198</medianDistance>
        </quality>
        <evaluationMode>manual</evaluationMode>
        <evaluationStatus>confirmed</evaluationStatus>
        <creationInfo>
          <agencyID>WEL(GNS_Primary)</agencyID>
          <author>jhanson@kseqx01.geonet.org.nz</author>
          <creationTime>2018-07-22T03:32:27.676913Z</creationTime>
        </creationInfo>
        <originUncertainty>
          <preferredDescription>confidence ellipsoid</preferredDescription>
          <horizontalUncertainty>5.629166457</horizontalUncertainty>
          <minHorizontalUncertainty>4.583277994</minHorizontalUncertainty>
          <maxHorizontalUncertainty>5.738435462</maxHorizontalUncertainty>
          <azimuthMaxHorizontalUncertainty>9.057964586</azimuthMaxHorizontalUncertainty>
          <confidenceEllipsoid>
            <semiMajorAxisLength>11815.45314</semiMajorAxisLength>
            <semiMinorAxisLength>4884.079138</semiMinorAxisLength>
            <semiIntermediateAxisLength>5379.163239</semiIntermediateAxisLength>
            <majorAxisPlunge>65.12099364</majorAxisPlunge>
            <majorAxisAzimuth>13.13714069</majorAxisAzimuth>
            <majorAxisRotation>156.016316</majorAxisRotation>
          </confidenceEllipsoid>
        </originUncertainty>
      </origin>
      <magnitude publicID="smi:nz.org.geonet/Magnitude#20180722033324.028149.102858">
        <mag>
          <value>5.210893459</value>
          <uncertainty>0.1564202977</uncertainty>
        </mag>
        <type>MLv</type>
        <originID>smi:nz.org.geonet/Origin#20180722033227.67467.102773</originID>
        <methodID>smi:nz.org.geonet/trimmed_mean</methodID>
        <stationCount>124</stationCount>
        <evaluationStatus>confirmed</evaluationStatus>
        <stationMagnitudeContribution>
          <stationMagnitudeID>smi:nz.org.geonet/StationMagnitude#20180722033334.625989.103040</stationMagnitudeID>
          <weight>0.0</weight>
        </stationMagnitudeContribution>
        <stationMagnitudeContribution>
          <stationMagnitudeID>smi:nz.org.geonet/StationMagnitude#20180722033334.626226.103041</stationMagnitudeID>
          <weight>0.0</weight>
        </stationMagnitudeContribution>
        <stationMagnitudeContribution>
          <stationMagnitudeID>smi:nz.org.geonet/StationMagnitude#20180722033334.626477.103042</stationMagnitudeID>
          <weight>1.0</weight>
        </stationMagnitudeContribution>
        <stationMagnitudeContribution>
          <stationMagnitudeID>smi:nz.org.geonet/StationMagnitude#20180722033334.626661.103043</stationMagnitudeID>
          <weight>1.0</weight>
        </stationMagnitudeContribution>
        <stationMagnitudeContribution>
          <stationMagnitudeID>smi:nz.org.geonet/StationMagnitude#20180722033334.626866.103044</stationMagnitudeID>
          <weight>1.0</weight>
        </stationMagnitudeContribution>
        <stationMagnitudeContribution>
          <stationMagnitudeID>smi:nz.org.geonet/StationMagnitude#20180722033334.627063.103045</stationMagnitudeID>
          <weight>0.0</weight>
        </stationMagnitudeContribution>
        <stationMagnitudeContribution>
          <stationMagnitudeID>smi:nz.org.geonet/StationMagnitude#20180722033334.62729.103046</stationMagnitudeID>
          <weight>1.0</weight>
        </stationMagnitudeContribution>
        <stationMagnitudeContribution>
          <stationMagnitudeID>smi:nz.org.geonet/StationMagnitude#20180722033334.627498.103047</stationMagnitudeID>
          <weight>0.0</weight>
        </stationMagnitudeContribution>
        <stationMagnitudeContribution>
          <stationMagnitudeID>smi:nz.org.geonet/StationMagnitude#20180722033334.627713.103048</stationMagnitudeID>
          <weight>0.0</weight>
        </stationMagnitudeContribution>
        <stationMagnitudeContribution>
          <stationMagnitudeID>smi:nz.org.geonet/StationMagnitude#20180722033334.627922.103049</stationMagnitudeID>
          <weight>1.0</weight>
        </stationMagnitudeContribution>
        <stationMagnitudeContribution>
          <stationMagnitudeID>smi:nz.org.geonet/StationMagnitude#20180722033334.628138.103050</stationMagnitudeID>
          <weight>1.0</weight>
        </stationMagnitudeContribution>
        <stationMagnitudeContribution>
          <stationMagnitudeID>smi:nz.org.geonet/StationMagnitude#20180722033334.628333.103051</stationMagnitudeID>
          <weight>0.0</weight>
        </stationMagnitudeContribution>
        <stationMagnitudeContribution>
          <stationMagnitudeID>smi:nz.org.geonet/StationMagnitude#20180722033334.628524.103052</stationMagnitudeID>
          <weight>1.0</weight>
        </stationMagnitudeContribution>
        <stationMagnitudeContribution>
          <stationMagnitudeID>smi:nz.org.geonet/StationMagnitude#20180722033334.628721.103053</stationMagnitudeID>
          <weight>1.0</weight>
        </stationMagnitudeContribution>
        <stationMagnitudeContribution>
          <stationMagnitudeID>smi:nz.org.geonet/StationMagnitude#20180722033334.628917.103054</stationMagnitudeID>
          <weight>0.0</weight>
        </stationMagnitudeContribution>
        <stationMagnitudeContribution>
          <stationMagnitudeID>smi:nz.org.geonet/StationMagnitude#20180722033334.629126.103055</stationMagnitudeID>
          <weight>0.0</weight>
        </stationMagnitudeContribution>
        <stationMagnitudeContribution>
          <stationMagnitudeID>smi:nz.org.geonet/StationMagnitude#20180722033334.629329.103056</stationMagnitudeID>
          <weight>1.0</weight>
        </stationMagnitudeContribution>
        <stationMagnitudeContribution>
          <stationMagnitudeID>smi:nz.org.geonet/StationMagnitude#20180722033334.62957.103057</stationMagnitudeID>
          <weight>1.0</weight>
        </stationMagnitudeContribution>
        <stationMagnitudeContribution>
          <stationMagnitudeID>smi:nz.org.geonet/StationMagnitude#20180722033334.62977.103058</stationMagnitudeID>
          <weight>1.0</weight>
        </stationMagnitudeContribution>
        <stationMagnitudeContribution>
          <stationMagnitudeID>smi:nz.org.geonet/StationMagnitude#20180722033334.62999.103059</stationMagnitudeID>
          <weight>0.0</weight>
        </stationMagnitudeContribution>
        <stationMagnitudeContribution>
          <stationMagnitudeID>smi:nz.org.geonet/StationMagnitude#20180722033334.630195.103060</stationMagnitudeID>
          <weight>1.0</weight>
        </stationMagnitudeContribution>
        <stationMagnitudeContribution>
          <stationMagnitudeID>smi:nz.org.geonet/StationMagnitude#20180722033334.630394.103061</stationMagnitudeID>
          <weight>1.0</weight>
        </stationMagnitudeContribution>
        <stationMagnitudeContribution>
          <stationMagnitudeID>smi:nz.org.geonet/StationMagnitude#20180722033334.63061.103062</stationMagnitudeID>
          <weight>0.0</weight>
        </stationMagnitudeContribution>
        <stationMagnitudeContribution>
          <stationMagnitudeID>smi:nz.org.geonet/StationMagnitude#20180722033334.630823.103063</stationMagnitudeID>
          <weight>1.0</weight>
        </stationMagnitudeContribution>
        <stationMagnitudeContribution>
          <stationMagnitudeID>smi:nz.org.geonet/StationMagnitude#20180722033334.631042.103064</stationMagnitudeID>
          <weight>1.0</weight>
        </stationMagnitudeContribution>
        <stationMagnitudeContribution>
          <stationMagnitudeID>smi:nz.org.geonet/StationMagnitude#20180722033334.631257.103065</stationMagnitudeID>
          <weight>1.0</weight>
        </stationMagnitudeContribution>
        <stationMagnitudeContribution>
          <stationMagnitudeID>smi:nz.org.geonet/StationMagnitude#20180722033334.631473.103066</stationMagnitudeID>
          <weight>0.5</weight>
        </stationMagnitudeContribution>
        <stationMagnitudeContribution>
          <stationMagnitudeID>smi:nz.org.geonet/StationMagnitude#20180722033334.631677.103067</stationMagnitudeID>
          <weight>1.0</weight>
        </stationMagnitudeContribution>
        <stationMagnitudeContribution>
          <stationMagnitudeID>smi:nz.org.geonet/StationMagnitude#20180722033334.63188.103068</stationMagnitudeID>
          <weight>1.0</weight>
        </stationMagnitudeContribution>
        <stationMagnitudeContribution>
          <stationMagnitudeID>smi:nz.org.geonet/StationMagnitude#20180722033334.632094.103069</stationMagnitudeID>
          <weight>1.0</weight>
        </stationMagnitudeContribution>
        <stationMagnitudeContribution>
          <stationMagnitudeID>smi:nz.org.geonet/StationMagnitude#20180722033334.632294.103070</stationMagnitudeID>
          <weight>0.0</weight>
        </stationMagnitudeContribution>
        <stationMagnitudeContribution>
          <stationMagnitudeID>smi:nz.org.geonet/StationMagnitude#20180722033334.6325.103071</stationMagnitudeID>
          <weight>0.0</weight>
        </stationMagnitudeContribution>
        <stationMagnitudeContribution>
          <stationMagnitudeID>smi:nz.org.geonet/StationMagnitude#20180722033334.632717.103072</stationMagnitudeID>
          <weight>1.0</weight>
        </stationMagnitudeContribution>
        <stationMagnitudeContribution>
          <stationMagnitudeID>smi:nz.org.geonet/StationMagnitude#20180722033334.63293.103073</stationMagnitudeID>
          <weight>1.0</weight>
        </stationMagnitudeContribution>
        <stationMagnitudeContribution>
          <stationMagnitudeID>smi:nz.org.geonet/StationMagnitude#20180722033334.633143.103074</stationMagnitudeID>
          <weight>0.0</weight>
        </stationMagnitudeContribution>
        <stationMagnitudeContribution>
          <stationMagnitudeID>smi:nz.org.geonet/StationMagnitude#20180722033334.633346.103075</stationMagnitudeID>
          <weight>1.0</weight>
        </stationMagnitudeContribution>
        <stationMagnitudeContribution>
          <stationMagnitudeID>smi:nz.org.geonet/StationMagnitude#20180722033334.633565.103076</stationMagnitudeID>
          <weight>1.0</weight>
        </stationMagnitudeContribution>
        <stationMagnitudeContribution>
          <stationMagnitudeID>smi:nz.org.geonet/StationMagnitude#20180722033334.633764.103077</stationMagnitudeID>
          <weight>1.0</weight>
        </stationMagnitudeContribution>
        <stationMagnitudeContribution>
          <stationMagnitudeID>smi:nz.org.geonet/StationMagnitude#20180722033334.633962.103078</stationMagnitudeID>
          <weight>1.0</weight>
        </stationMagnitudeContribution>
        <stationMagnitudeContribution>
          <stationMagnitudeID>smi:nz.org.geonet/StationMagnitude#20180722033334.634174.103079</stationMagnitudeID>
          <weight>0.0</weight>
        </stationMagnitudeContribution>
        <stationMagnitudeContribution>
          <stationMagnitudeID>smi:nz.org.geonet/StationMagnitude#20180722033334.63439.103080</stationMagnitudeID>
          <weight>1.0</weight>
        </stationMagnitudeContribution>
        <stationMagnitudeContribution>
          <stationMagnitudeID>smi:nz.org.geonet/StationMagnitude#20180722033334.634589.103081</stationMagnitudeID>
          <weight>1.0</weight>
        </stationMagnitudeContribution>
        <stationMagnitudeContribution>
          <stationMagnitudeID>smi:nz.org.geonet/StationMagnitude#20180722033334.634784.103082</stationMagnitudeID>
          <weight>1.0</weight>
        </stationMagnitudeContribution>
        <stationMagnitudeContribution>
          <stationMagnitudeID>smi:nz.org.geonet/StationMagnitude#20180722033334.634998.103083</stationMagnitudeID>
          <weight>1.0</weight>
        </stationMagnitudeContribution>
        <stationMagnitudeContribution>
          <stationMagnitudeID>smi:nz.org.geonet/StationMagnitude#20180722033334.635203.103084</stationMagnitudeID>
          <weight>1.0</weight>
        </stationMagnitudeContribution>
        <stationMagnitudeContribution>
          <stationMagnitudeID>smi:nz.org.geonet/StationMagnitude#20180722033334.6354.103085</stationMagnitudeID>
          <weight>1.0</weight>
        </stationMagnitudeContribution>
        <stationMagnitudeContribution>
          <stationMagnitudeID>smi:nz.org.geonet/StationMagnitude#20180722033334.635623.103086</stationMagnitudeID>
          <weight>0.0</weight>
        </stationMagnitudeContribution>
        <stationMagnitudeContribution>
          <stationMagnitudeID>smi:nz.org.geonet/StationMagnitude#20180722033334.635835.103087</stationMagnitudeID>
          <weight>1.0</weight>
        </stationMagnitudeContribution>
        <stationMagnitudeContribution>
          <stationMagnitudeID>smi:nz.org.geonet/StationMagnitude#20180722033334.636045.103088</stationMagnitudeID>
          <weight>0.0</weight>
        </stationMagnitudeContribution>
        <stationMagnitudeContribution>
          <stationMagnitudeID>smi:nz.org.geonet/StationMagnitude#20180722033334.636246.103089</stationMagnitudeID>
          <weight>1.0</weight>
        </stationMagnitudeContribution>
        <stationMagnitudeContribution>
          <stationMagnitudeID>smi:nz.org.geonet/StationMagnitude#20180722033334.636445.103090</stationMagnitudeID>
          <weight>1.0</weight>
        </stationMagnitudeContribution>
        <stationMagnitudeContribution>
          <stationMagnitudeID>smi:nz.org.geonet/StationMagnitude#20180722033334.636645.103091</stationMagnitudeID>
          <weight>1.0</weight>
        </stationMagnitudeContribution>
        <stationMagnitudeContribution>
          <stationMagnitudeID>smi:nz.org.geonet/StationMagnitude#20180722033334.636868.103092</stationMagnitudeID>
          <weight>1.0</weight>
        </stationMagnitudeContribution>
        <stationMagnitudeContribution>
          <stationMagnitudeID>smi:nz.org.geonet/StationMagnitude#20180722033334.637095.103093</stationMagnitudeID>
          <weight>1.0</weight>
        </stationMagnitudeContribution>
        <stationMagnitudeContribution>
          <stationMagnitudeID>smi:nz.org.geonet/StationMagnitude#20180722033334.637313.103094</stationMagnitudeID>
          <weight>1.0</weight>
        </stationMagnitudeContribution>
        <stationMagnitudeContribution>
          <stationMagnitudeID>smi:nz.org.geonet/StationMagnitude#20180722033334.637522.103095</stationMagnitudeID>
          <weight>0.0</weight>
        </stationMagnitudeContribution>
        <stationMagnitudeContribution>
          <stationMagnitudeID>smi:nz.org.geonet/StationMagnitude#20180722033334.637734.103096</stationMagnitudeID>
          <weight>1.0</weight>
        </stationMagnitudeContribution>
        <stationMagnitudeContribution>
          <stationMagnitudeID>smi:nz.org.geonet/StationMagnitude#20180722033334.637952.103097</stationMagnitudeID>
          <weight>1.0</weight>
        </stationMagnitudeContribution>
        <stationMagnitudeContribution>
          <stationMagnitudeID>smi:nz.org.geonet/StationMagnitude#20180722033334.638234.103098</stationMagnitudeID>
          <weight>0.0</weight>
        </stationMagnitudeContribution>
        <stationMagnitudeContribution>
          <stationMagnitudeID>smi:nz.org.geonet/StationMagnitude#20180722033334.638441.103099</stationMagnitudeID>
          <weight>1.0</weight>
        </stationMagnitudeContribution>
        <stationMagnitudeContribution>
          <stationMagnitudeID>smi:nz.org.geonet/StationMagnitude#20180722033334.638705.103100</stationMagnitudeID>
          <weight>1.0</weight>
        </stationMagnitudeContribution>
        <stationMagnitudeContribution>
          <stationMagnitudeID>smi:nz.org.geonet/StationMagnitude#20180722033334.638986.103101</stationMagnitudeID>
          <weight>1.0</weight>
        </stationMagnitudeContribution>
        <stationMagnitudeContribution>
          <stationMagnitudeID>smi:nz.org.geonet/StationMagnitude#20180722033334.639203.103102</stationMagnitudeID>
          <weight>1.0</weight>
        </stationMagnitudeContribution>
        <stationMagnitudeContribution>
          <stationMagnitudeID>smi:nz.org.geonet/StationMagnitude#20180722033334.639408.103103</stationMagnitudeID>
          <weight>1.0</weight>
        </stationMagnitudeContribution>
        <stationMagnitudeContribution>
          <stationMagnitudeID>smi:nz.org.geonet/StationMagnitude#20180722033334.639622.103104</stationMagnitudeID>
          <weight>1.0</weight>
        </stationMagnitudeContribution>
        <stationMagnitudeContribution>
          <stationMagnitudeID>smi:nz.org.geonet/StationMagnitude#20180722033334.63987.103105</stationMagnitudeID>
          <weight>1.0</weight>
        </stationMagnitudeContribution>
        <stationMagnitudeContribution>
          <stationMagnitudeID>smi:nz.org.geonet/StationMagnitude#20180722033334.640105.103106</stationMagnitudeID>
          <weight>1.0</weight>
        </stationMagnitudeContribution>
        <stationMagnitudeContribution>
          <stationMagnitudeID>smi:nz.org.geonet/StationMagnitude#20180722033334.640311.103107</stationMagnitudeID>
          <weight>1.0</weight>
        </stationMagnitudeContribution>
        <stationMagnitudeContribution>
          <stationMagnitudeID>smi:nz.org.geonet/StationMagnitude#20180722033334.640525.103108</stationMagnitudeID>
          <weight>1.0</weight>
        </stationMagnitudeContribution>
        <stationMagnitudeContribution>
          <stationMagnitudeID>smi:nz.org.geonet/StationMagnitude#20180722033334.640753.103109</stationMagnitudeID>
          <weight>1.0</weight>
        </stationMagnitudeContribution>
        <stationMagnitudeContribution>
          <stationMagnitudeID>smi:nz.org.geonet/StationMagnitude#20180722033334.64098.103110</stationMagnitudeID>
          <weight>1.0</weight>
        </stationMagnitudeContribution>
